IRIDIUM 106             
1 41917U 17003A   25284.51025572  .00000400  00000+0  13586-3 0  9990
2 41917  86.4039 192.4205 0002186  69.8380 290.3050 14.34220775457569
IRIDIUM 103             
1 41918U 17003B   25284.70688151  .00000398  00000+0  13488-3 0  9997
2 41918  86.4038 192.2392 0002649  83.1655 276.9843 14.34219226457617
IRIDIUM 109             
1 41919U 17003C   25284.50390709  .00000346  00000+0  11645-3 0  9991
2 41919  86.4041 192.3791 0002397  84.8641 275.2828 14.34214369457550
IRIDIUM 102             
1 41920U 17003D   25284.68150488 -.00000040  00000+0 -21234-4 0  9999
2 41920  86.4040 192.2339 0002027  84.7420 275.4007 14.34215910457668
IRIDIUM 105             
1 41921U 17003E   25284.93136878  .00000347  00000+0  11682-3 0  9998
2 41921  86.4019 160.6441 0002309  84.2555 275.8904 14.34228270459558
IRIDIUM 104             
1 41922U 17003F   25284.69418905  .00000414  00000+0  14082-3 0  9998
2 41922  86.4040 192.2675 0002403  90.1381 270.0090 14.34219717457659
IRIDIUM 114             
1 41923U 17003G   25284.97961044  .00000452  00000+0  15449-3 0  9997
2 41923  86.4040 192.1327 0002359  82.4519 277.6945 14.34218411457674
IRIDIUM 108             
1 41924U 17003H   25284.93812772  .00000256  00000+0  84474-4 0  9994
2 41924  86.4014 160.5353 0001907  82.8028 277.3385 14.34219742459520
